[{"OBJECT_NAME":"ONEWEB-0205","OBJECT_ID":"2021-031S","EPOCH":"2026-05-03T21:55:10.632000","MEAN_MOTION":13.14503727,"ECCENTRICITY":0.0001591,"INCLINATION":87.893,"RA_OF_ASC_NODE":298.5287,"ARG_OF_PERICENTER":96.8853,"MEAN_ANOMALY":263.2458,"EPHEMERIS_TYPE":0,"CLASSIFICATION_TYPE":"U","NORAD_CAT_ID":48226,"ELEMENT_SET_NO":999,"REV_AT_EPOCH":24245,"BSTAR":-4.8538e-05,"MEAN_MOTION_DOT":-5e-08,"MEAN_MOTION_DDOT":0.0},{"OBJECT_NAME":"ONEWEB-0206","OBJECT_ID":"2021-031T","EPOCH":"2026-05-04T04:34:47.439840","MEAN_MOTION":13.14504804,"ECCENTRICITY":0.0001955,"INCLINATION":87.8932,"RA_OF_ASC_NODE":298.4757,"ARG_OF_PERICENTER":92.1002,"MEAN_ANOMALY":268.0352,"EPHEMERIS_TYPE":0,"CLASSIFICATION_TYPE":"U","NORAD_CAT_ID":48227,"ELEMENT_SET_NO":999,"REV_AT_EPOCH":24244,"BSTAR":-0.00038932,"MEAN_MOTION_DOT":-1.32e-06,"MEAN_MOTION_DDOT":0.0},{"OBJECT_NAME":"ONEWEB-0182","OBJECT_ID":"2021-031U","EPOCH":"2026-05-04T00:48:43.889184","MEAN_MOTION":13.14503422,"ECCENTRICITY":0.0001803,"INCLINATION":87.8926,"RA_OF_ASC_NODE":298.5164,"ARG_OF_PERICENTER":99.8798,"MEAN_ANOMALY":260.2536,"EPHEMERIS_TYPE":0,"CLASSIFICATION_TYPE":"U","NORAD_CAT_ID":48228,"ELEMENT_SET_NO":999,"REV_AT_EPOCH":24263,"BSTAR":-0.00022689999999999999,"MEAN_MOTION_DOT":-7.1e-07,"MEAN_MOTION_DDOT":0.0},{"OBJECT_NAME":"ONEWEB-0186","OBJECT_ID":"2021-031V","EPOCH":"2026-05-04T01:04:42.892032","MEAN_MOTION":13.14503777,"ECCENTRICITY":0.0001642,"INCLINATION":87.8931,"RA_OF_ASC_NODE":298.5022,"ARG_OF_PERICENTER":94.3709,"MEAN_ANOMALY":265.7609,"EPHEMERIS_TYPE":0,"CLASSIFICATION_TYPE":"U","NORAD_CAT_ID":48229,"ELEMENT_SET_NO":999,"REV_AT_EPOCH":24258,"BSTAR":-0.0007333499999999999,"MEAN_MOTION_DOT":-2.59e-06,"MEAN_MOTION_DDOT":0.0},{"OBJECT_NAME":"ONEWEB-0181","OBJECT_ID":"2021-031W","EPOCH":"2026-05-04T04:11:59.015040","MEAN_MOTION":13.14503273,"ECCENTRICITY":0.0001554,"INCLINATION":87.8917,"RA_OF_ASC_NODE":298.5124,"ARG_OF_PERICENTER":91.1868,"MEAN_ANOMALY":268.944,"EPHEMERIS_TYPE":0,"CLASSIFICATION_TYPE":"U","NORAD_CAT_ID":48230,"ELEMENT_SET_NO":999,"REV_AT_EPOCH":24245,"BSTAR":0.00028356999999999997,"MEAN_MOTION_DOT":1.18e-06,"MEAN_MOTION_DDOT":0.0},{"OBJECT_NAME":"ONEWEB-0188","OBJECT_ID":"2021-031X","EPOCH":"2026-05-03T21:48:21.312000","MEAN_MOTION":13.14502591,"ECCENTRICITY":0.0001715,"INCLINATION":87.8917,"RA_OF_ASC_NODE":298.5639,"ARG_OF_PERICENTER":94.3961,"MEAN_ANOMALY":265.7364,"EPHEMERIS_TYPE":0,"CLASSIFICATION_TYPE":"U","NORAD_CAT_ID":48231,"ELEMENT_SET_NO":999,"REV_AT_EPOCH":24232,"BSTAR":-0.00020074,"MEAN_MOTION_DOT":-6.2e-07,"MEAN_MOTION_DDOT":0.0},{"OBJECT_NAME":"ONEWEB-0220","OBJECT_ID":"2021-031Y","EPOCH":"2026-05-04T04:14:14.097120","MEAN_MOTION":13.14503756,"ECCENTRICITY":0.0001579,"INCLINATION":87.8935,"RA_OF_ASC_NODE":298.4771,"ARG_OF_PERICENTER":98.7044,"MEAN_ANOMALY":261.4265,"EPHEMERIS_TYPE":0,"CLASSIFICATION_TYPE":"U","NORAD_CAT_ID":48232,"ELEMENT_SET_NO":999,"REV_AT_EPOCH":24262,"BSTAR":0.00019273,"MEAN_MOTION_DOT":8.4e-07,"MEAN_MOTION_DDOT":0.0},{"OBJECT_NAME":"ONEWEB-0165","OBJECT_ID":"2021-031Z","EPOCH":"2026-05-03T21:36:54.324864","MEAN_MOTION":13.14504241,"ECCENTRICITY":0.0001473,"INCLINATION":87.8927,"RA_OF_ASC_NODE":298.5479,"ARG_OF_PERICENTER":84.9199,"MEAN_ANOMALY":275.2099,"EPHEMERIS_TYPE":0,"CLASSIFICATION_TYPE":"U","NORAD_CAT_ID":48233,"ELEMENT_SET_NO":999,"REV_AT_EPOCH":24254,"BSTAR":-0.00054119,"MEAN_MOTION_DOT":-1.88e-06,"MEAN_MOTION_DDOT":0.0},{"OBJECT_NAME":"ONEWEB-0199","OBJECT_ID":"2021-031AA","EPOCH":"2026-05-04T04:32:30.616800","MEAN_MOTION":13.1450449,"ECCENTRICITY":0.0001922,"INCLINATION":87.8933,"RA_OF_ASC_NODE":298.4732,"ARG_OF_PERICENTER":93.0516,"MEAN_ANOMALY":267.0833,"EPHEMERIS_TYPE":0,"CLASSIFICATION_TYPE":"U","NORAD_CAT_ID":48234,"ELEMENT_SET_NO":999,"REV_AT_EPOCH":24248,"BSTAR":-0.00019091,"MEAN_MOTION_DOT":-5.8e-07,"MEAN_MOTION_DDOT":0.0},{"OBJECT_NAME":"ONEWEB-0203","OBJECT_ID":"2021-031AB","EPOCH":"2026-05-04T04:18:49.086720","MEAN_MOTION":13.1450357,"ECCENTRICITY":0.0001788,"INCLINATION":87.8937,"RA_OF_ASC_NODE":298.4781,"ARG_OF_PERICENTER":87.522,"MEAN_ANOMALY":272.6114,"EPHEMERIS_TYPE":0,"CLASSIFICATION_TYPE":"U","NORAD_CAT_ID":48235,"ELEMENT_SET_NO":999,"REV_AT_EPOCH":24249,"BSTAR":0.00012826000000000002,"MEAN_MOTION_DOT":6e-07,"MEAN_MOTION_DDOT":0.0},{"OBJECT_NAME":"ONEWEB-0197","OBJECT_ID":"2021-031AC","EPOCH":"2026-05-03T22:13:14.888928","MEAN_MOTION":13.14504176,"ECCENTRICITY":0.0001863,"INCLINATION":87.8921,"RA_OF_ASC_NODE":298.5202,"ARG_OF_PERICENTER":102.9755,"MEAN_ANOMALY":257.1583,"EPHEMERIS_TYPE":0,"CLASSIFICATION_TYPE":"U","NORAD_CAT_ID":48236,"ELEMENT_SET_NO":999,"REV_AT_EPOCH":24237,"BSTAR":0.00049531,"MEAN_MOTION_DOT":1.96e-06,"MEAN_MOTION_DDOT":0.0},{"OBJECT_NAME":"ONEWEB-0194","OBJECT_ID":"2021-031AD","EPOCH":"2026-05-03T21:43:46.009632","MEAN_MOTION":13.1449903,"ECCENTRICITY":0.0001902,"INCLINATION":87.8923,"RA_OF_ASC_NODE":298.544,"ARG_OF_PERICENTER":87.3424,"MEAN_ANOMALY":272.7924,"EPHEMERIS_TYPE":0,"CLASSIFICATION_TYPE":"U","NORAD_CAT_ID":48237,"ELEMENT_SET_NO":999,"REV_AT_EPOCH":24254,"BSTAR":0.0019933999999999998,"MEAN_MOTION_DOT":7.52e-06,"MEAN_MOTION_DDOT":0.0},{"OBJECT_NAME":"ONEWEB-0193","OBJECT_ID":"2021-031AE","EPOCH":"2026-05-03T22:06:36.400896","MEAN_MOTION":13.14503866,"ECCENTRICITY":0.0002131,"INCLINATION":87.8923,"RA_OF_ASC_NODE":298.532,"ARG_OF_PERICENTER":87.1212,"MEAN_ANOMALY":273.0161,"EPHEMERIS_TYPE":0,"CLASSIFICATION_TYPE":"U","NORAD_CAT_ID":48238,"ELEMENT_SET_NO":999,"REV_AT_EPOCH":24249,"BSTAR":0.00032384000000000004,"MEAN_MOTION_DOT":1.33e-06,"MEAN_MOTION_DDOT":0.0},{"OBJECT_NAME":"ONEWEB-0191","OBJECT_ID":"2021-031AF","EPOCH":"2026-05-04T00:12:12.119904","MEAN_MOTION":13.14503997,"ECCENTRICITY":0.0001811,"INCLINATION":87.8927,"RA_OF_ASC_NODE":298.5112,"ARG_OF_PERICENTER":99.0982,"MEAN_ANOMALY":261.0353,"EPHEMERIS_TYPE":0,"CLASSIFICATION_TYPE":"U","NORAD_CAT_ID":48239,"ELEMENT_SET_NO":999,"REV_AT_EPOCH":24236,"BSTAR":0.00062695,"MEAN_MOTION_DOT":2.45e-06,"MEAN_MOTION_DDOT":0.0},{"OBJECT_NAME":"ONEWEB-0195","OBJECT_ID":"2021-031AG","EPOCH":"2026-05-03T21:49:29.493696","MEAN_MOTION":13.1450376,"ECCENTRICITY":0.0001388,"INCLINATION":87.8937,"RA_OF_ASC_NODE":298.53,"ARG_OF_PERICENTER":86.0868,"MEAN_ANOMALY":274.042,"EPHEMERIS_TYPE":0,"CLASSIFICATION_TYPE":"U","NORAD_CAT_ID":48240,"ELEMENT_SET_NO":999,"REV_AT_EPOCH":24233,"BSTAR":-0.00026472,"MEAN_MOTION_DOT":-8.5e-07,"MEAN_MOTION_DDOT":0.0},{"OBJECT_NAME":"ONEWEB-0201","OBJECT_ID":"2021-031AH","EPOCH":"2026-05-04T04:50:58.307136","MEAN_MOTION":13.14504024,"ECCENTRICITY":0.0001603,"INCLINATION":87.8917,"RA_OF_ASC_NODE":298.4929,"ARG_OF_PERICENTER":106.4637,"MEAN_ANOMALY":253.6668,"EPHEMERIS_TYPE":0,"CLASSIFICATION_TYPE":"U","NORAD_CAT_ID":48241,"ELEMENT_SET_NO":999,"REV_AT_EPOCH":24260,"BSTAR":-0.00065903,"MEAN_MOTION_DOT":-2.32e-06,"MEAN_MOTION_DDOT":0.0}]