ONEWEB-0205             
1 48226U 21031S   26123.91331750 -.00000005  00000+0 -48538-4 0  9990
2 48226  87.8930 298.5287 0001591  96.8853 263.2458 13.14503727242455
ONEWEB-0206             
1 48227U 21031T   26124.19082685 -.00000132  00000+0 -38932-3 0  9999
2 48227  87.8932 298.4757 0001955  92.1002 268.0352 13.14504804242440
ONEWEB-0182             
1 48228U 21031U   26124.03384131 -.00000071  00000+0 -22690-3 0  9990
2 48228  87.8926 298.5164 0001803  99.8798 260.2536 13.14503422242639
ONEWEB-0186             
1 48229U 21031V   26124.04494088 -.00000259  00000+0 -73335-3 0  9995
2 48229  87.8931 298.5022 0001642  94.3709 265.7609 13.14503777242580
ONEWEB-0181             
1 48230U 21031W   26124.17498860  .00000118  00000+0  28357-3 0  9999
2 48230  87.8917 298.5124 0001554  91.1868 268.9440 13.14503273242457
ONEWEB-0188             
1 48231U 21031X   26123.90858000 -.00000062  00000+0 -20074-3 0  9994
2 48231  87.8917 298.5639 0001715  94.3961 265.7364 13.14502591242325
ONEWEB-0220             
1 48232U 21031Y   26124.17655205  .00000084  00000+0  19273-3 0  9998
2 48232  87.8935 298.4771 0001579  98.7044 261.4265 13.14503756242620
ONEWEB-0165             
1 48233U 21031Z   26123.90062876 -.00000188  00000+0 -54119-3 0  9990
2 48233  87.8927 298.5479 0001473  84.9199 275.2099 13.14504241242548
ONEWEB-0199             
1 48234U 21031AA  26124.18924325 -.00000058  00000+0 -19091-3 0  9994
2 48234  87.8933 298.4732 0001922  93.0516 267.0833 13.14504490242484
ONEWEB-0203             
1 48235U 21031AB  26124.17973480  .00000060  00000+0  12826-3 0  9990
2 48235  87.8937 298.4781 0001788  87.5220 272.6114 13.14503570242496
ONEWEB-0197             
1 48236U 21031AC  26123.92586677  .00000196  00000+0  49531-3 0  9994
2 48236  87.8921 298.5202 0001863 102.9755 257.1583 13.14504176242376
ONEWEB-0194             
1 48237U 21031AD  26123.90539363  .00000752  00000+0  19934-2 0  9994
2 48237  87.8923 298.5440 0001902  87.3424 272.7924 13.14499030242549
ONEWEB-0193             
1 48238U 21031AE  26123.92125464  .00000133  00000+0  32384-3 0  9998
2 48238  87.8923 298.5320 0002131  87.1212 273.0161 13.14503866242499
ONEWEB-0191             
1 48239U 21031AF  26124.00847361  .00000245  00000+0  62695-3 0  9998
2 48239  87.8927 298.5112 0001811  99.0982 261.0353 13.14503997242364
ONEWEB-0195             
1 48240U 21031AG  26123.90936914 -.00000085  00000+0 -26472-3 0  9998
2 48240  87.8937 298.5300 0001388  86.0868 274.0420 13.14503760242338
ONEWEB-0201             
1 48241U 21031AH  26124.20206374 -.00000232  00000+0 -65903-3 0  9999
2 48241  87.8917 298.4929 0001603 106.4637 253.6668 13.14504024242605
